[
    {
        "id": "3509162001",
        "district_id": "350916",
        "name": "Kemuningsarikidul (Kemuning Sari Kidul)",
        "postal_code": "68171"
    },
    {
        "id": "3509162002",
        "district_id": "350916",
        "name": "Wonojati",
        "postal_code": "68171"
    },
    {
        "id": "3509162003",
        "district_id": "350916",
        "name": "Jenggawah",
        "postal_code": "68171"
    },
    {
        "id": "3509162004",
        "district_id": "350916",
        "name": "Kertonegoro",
        "postal_code": "68171"
    },
    {
        "id": "3509162005",
        "district_id": "350916",
        "name": "Sruni (Seruni)",
        "postal_code": "68171"
    },
    {
        "id": "3509162006",
        "district_id": "350916",
        "name": "Jatisari",
        "postal_code": "68171"
    },
    {
        "id": "3509162007",
        "district_id": "350916",
        "name": "Jatimulyo",
        "postal_code": "68171"
    },
    {
        "id": "3509162008",
        "district_id": "350916",
        "name": "Cangkring",
        "postal_code": "68171"
    }
]