[
    {
        "id": "3579022001",
        "district_id": "357902",
        "name": "Punten",
        "postal_code": "65338"
    },
    {
        "id": "3579022002",
        "district_id": "357902",
        "name": "Gunungsari (Gunung Sari)",
        "postal_code": "65337"
    },
    {
        "id": "3579022003",
        "district_id": "357902",
        "name": "Tulungrejo (Tulung Rejo)",
        "postal_code": "65336"
    },
    {
        "id": "3579022004",
        "district_id": "357902",
        "name": "Sumbergondo (Sumber Gondo)",
        "postal_code": "65335"
    },
    {
        "id": "3579022005",
        "district_id": "357902",
        "name": "Pandanrejo (Pandan Rejo)",
        "postal_code": "65332"
    },
    {
        "id": "3579022006",
        "district_id": "357902",
        "name": "Bumiaji",
        "postal_code": "65331"
    },
    {
        "id": "3579022007",
        "district_id": "357902",
        "name": "Giripurno",
        "postal_code": "65333"
    },
    {
        "id": "3579022008",
        "district_id": "357902",
        "name": "Bulukerto",
        "postal_code": "65334"
    },
    {
        "id": "3579022009",
        "district_id": "357902",
        "name": "Sumberbrantas (Sumber Brantas)",
        "postal_code": "65338"
    }
]