[
    {
        "id": "1802122001",
        "district_id": "180212",
        "name": "Gaya Baru VI (Gaya Baru Enam)",
        "postal_code": "34158"
    },
    {
        "id": "1802122002",
        "district_id": "180212",
        "name": "Sumber Katon",
        "postal_code": "34158"
    },
    {
        "id": "1802122003",
        "district_id": "180212",
        "name": "Srikaton (Sri Katon)",
        "postal_code": "34158"
    },
    {
        "id": "1802122004",
        "district_id": "180212",
        "name": "Gaya Baru VII (Gaya Baru Tujuh)",
        "postal_code": "34158"
    },
    {
        "id": "1802122005",
        "district_id": "180212",
        "name": "Gaya Baru IV (Gaya Baru Empat)",
        "postal_code": "34158"
    },
    {
        "id": "1802122006",
        "district_id": "180212",
        "name": "Gaya Baru III (Gaya Baru Tiga)",
        "postal_code": "34158"
    },
    {
        "id": "1802122007",
        "district_id": "180212",
        "name": "Gaya Baru II (Gaya Baru Dua)",
        "postal_code": "34158"
    },
    {
        "id": "1802122008",
        "district_id": "180212",
        "name": "Gaya Baru VIII (Gaya Baru Delapan)",
        "postal_code": "34158"
    },
    {
        "id": "1802122009",
        "district_id": "180212",
        "name": "Gaya Baru I (Gaya Baru Satu)",
        "postal_code": "34158"
    },
    {
        "id": "1802122010",
        "district_id": "180212",
        "name": "Mataram Ilir",
        "postal_code": "34158"
    },
    {
        "id": "1802122011",
        "district_id": "180212",
        "name": "Rawa Betik",
        "postal_code": "34158"
    },
    {
        "id": "1802122012",
        "district_id": "180212",
        "name": "Srimulya Jaya (Sri Mulya Jaya)",
        "postal_code": "34158"
    },
    {
        "id": "1802122013",
        "district_id": "180212",
        "name": "Kenanga Sari",
        "postal_code": "34158"
    }
]