[
    {
        "id": "3514201005",
        "district_id": "351420",
        "name": "Gratitunon (Grati Tunon)",
        "postal_code": "67184"
    },
    {
        "id": "3514202001",
        "district_id": "351420",
        "name": "Kebonrejo (Kebon Rejo)",
        "postal_code": "67184"
    },
    {
        "id": "3514202002",
        "district_id": "351420",
        "name": "Karanglo (Karang Lo)",
        "postal_code": "67184"
    },
    {
        "id": "3514202003",
        "district_id": "351420",
        "name": "Rebalas",
        "postal_code": "67184"
    },
    {
        "id": "3514202004",
        "district_id": "351420",
        "name": "Plososari",
        "postal_code": "67184"
    },
    {
        "id": "3514202006",
        "district_id": "351420",
        "name": "Kalipang",
        "postal_code": "67184"
    },
    {
        "id": "3514202007",
        "district_id": "351420",
        "name": "Trewung",
        "postal_code": "67184"
    },
    {
        "id": "3514202008",
        "district_id": "351420",
        "name": "Kambinganrejo (Kambingan Rejo)",
        "postal_code": "67184"
    },
    {
        "id": "3514202009",
        "district_id": "351420",
        "name": "Karangkliwon (Karang Kliwon)",
        "postal_code": "67184"
    },
    {
        "id": "3514202010",
        "district_id": "351420",
        "name": "Kedawungkulon (Kedawung Kulon)",
        "postal_code": "67184"
    },
    {
        "id": "3514202011",
        "district_id": "351420",
        "name": "Kedawungwetan (Kedawung Wetan)",
        "postal_code": "67184"
    },
    {
        "id": "3514202012",
        "district_id": "351420",
        "name": "Sumberagung (Sumber Agung)",
        "postal_code": "67184"
    },
    {
        "id": "3514202013",
        "district_id": "351420",
        "name": "Ranuklindungan (Ranu Klindungan)",
        "postal_code": "67184"
    },
    {
        "id": "3514202014",
        "district_id": "351420",
        "name": "Sumberdawesari (Sumber Dawesari)",
        "postal_code": "67184"
    },
    {
        "id": "3514202015",
        "district_id": "351420",
        "name": "Cukurgondang",
        "postal_code": "67184"
    }
]