[
    {
        "id": "5107022001",
        "district_id": "510702",
        "name": "Tangkup",
        "postal_code": "80864"
    },
    {
        "id": "5107022002",
        "district_id": "510702",
        "name": "Talibeng",
        "postal_code": "80864"
    },
    {
        "id": "5107022003",
        "district_id": "510702",
        "name": "Sidemen",
        "postal_code": "80864"
    },
    {
        "id": "5107022004",
        "district_id": "510702",
        "name": "Sangkan Gunung",
        "postal_code": "80864"
    },
    {
        "id": "5107022005",
        "district_id": "510702",
        "name": "Telaga Tawang",
        "postal_code": "80864"
    },
    {
        "id": "5107022006",
        "district_id": "510702",
        "name": "Sinduwati (Sindu Wati)",
        "postal_code": "80864"
    },
    {
        "id": "5107022007",
        "district_id": "510702",
        "name": "Tri Eka Buana",
        "postal_code": "80864"
    },
    {
        "id": "5107022008",
        "district_id": "510702",
        "name": "Kerta Buana (Kertha Buana)",
        "postal_code": "80864"
    },
    {
        "id": "5107022009",
        "district_id": "510702",
        "name": "Lakasari (Lokasari)",
        "postal_code": "80864"
    },
    {
        "id": "5107022010",
        "district_id": "510702",
        "name": "Wismakerta (Wisma Kerta)",
        "postal_code": "80864"
    }
]