[
    {
        "id": "1101172001",
        "district_id": "110117",
        "name": "Buket Gadeng (Bukit Gading \/ Buket Gedeng)",
        "postal_code": "23778"
    },
    {
        "id": "1101172002",
        "district_id": "110117",
        "name": "Rambong",
        "postal_code": "23778"
    },
    {
        "id": "1101172003",
        "district_id": "110117",
        "name": "Seuneubok Keuranji (Seunebok Keranji)",
        "postal_code": "23778"
    },
    {
        "id": "1101172004",
        "district_id": "110117",
        "name": "Seuneubok Alur Buloh (Seneubok Alur Bulah)",
        "postal_code": "23778"
    },
    {
        "id": "1101172005",
        "district_id": "110117",
        "name": "Ujong Tanoh (Ujung Tanoh)",
        "postal_code": "23778"
    },
    {
        "id": "1101172006",
        "district_id": "110117",
        "name": "Ujong Gunong Cut (Ujung Gunung Cut)",
        "postal_code": "23778"
    },
    {
        "id": "1101172007",
        "district_id": "110117",
        "name": "Ujong Gunung Rayeuk (Ujung Gunong Rayek)",
        "postal_code": "23778"
    },
    {
        "id": "1101172008",
        "district_id": "110117",
        "name": "Beutong",
        "postal_code": "23778"
    },
    {
        "id": "1101172009",
        "district_id": "110117",
        "name": "Jambo Keupok\/Keuphok",
        "postal_code": "23778"
    },
    {
        "id": "1101172010",
        "district_id": "110117",
        "name": "Alurduamas (Alur Dua Mas)",
        "postal_code": "23778"
    }
]