[
    {
        "id": "7302031001",
        "district_id": "730203",
        "name": "Tanahl Lemo (Tanah Lemo)",
        "postal_code": "92571"
    },
    {
        "id": "7302031002",
        "district_id": "730203",
        "name": "Sapo Lohe (Sapolohe)",
        "postal_code": "92571"
    },
    {
        "id": "7302031003",
        "district_id": "730203",
        "name": "Benjala",
        "postal_code": "92571"
    },
    {
        "id": "7302031004",
        "district_id": "730203",
        "name": "Tanah Beru",
        "postal_code": "92571"
    },
    {
        "id": "7302032005",
        "district_id": "730203",
        "name": "Bira",
        "postal_code": "92571"
    },
    {
        "id": "7302032006",
        "district_id": "730203",
        "name": "Ara",
        "postal_code": "92571"
    },
    {
        "id": "7302032007",
        "district_id": "730203",
        "name": "Darudiah (Darubiah)",
        "postal_code": "92571"
    },
    {
        "id": "7302032008",
        "district_id": "730203",
        "name": "Lembanna",
        "postal_code": "92571"
    }
]