[
    {
        "id": "3602112001",
        "district_id": "360211",
        "name": "Sarageni",
        "postal_code": "42361"
    },
    {
        "id": "3602112002",
        "district_id": "360211",
        "name": "Gununganten (Gunung Anten)",
        "postal_code": "42361"
    },
    {
        "id": "3602112003",
        "district_id": "360211",
        "name": "Sudamanik",
        "postal_code": "42361"
    },
    {
        "id": "3602112004",
        "district_id": "360211",
        "name": "Tambak",
        "postal_code": "42361"
    },
    {
        "id": "3602112005",
        "district_id": "360211",
        "name": "Cimarga",
        "postal_code": "42361"
    },
    {
        "id": "3602112006",
        "district_id": "360211",
        "name": "Karyajaya (Karya Jaya)",
        "postal_code": "42361"
    },
    {
        "id": "3602112007",
        "district_id": "360211",
        "name": "Margajaya (Marga Jaya)",
        "postal_code": "42361"
    },
    {
        "id": "3602112008",
        "district_id": "360211",
        "name": "Jayamanik",
        "postal_code": "42361"
    },
    {
        "id": "3602112009",
        "district_id": "360211",
        "name": "Margaluyu",
        "postal_code": "42361"
    },
    {
        "id": "3602112010",
        "district_id": "360211",
        "name": "Margatirta",
        "postal_code": "42361"
    },
    {
        "id": "3602112011",
        "district_id": "360211",
        "name": "Intenjaya (Inten Jaya)",
        "postal_code": "42361"
    },
    {
        "id": "3602112012",
        "district_id": "360211",
        "name": "Mekarjaya (Mekar Jaya)",
        "postal_code": "42361"
    },
    {
        "id": "3602112013",
        "district_id": "360211",
        "name": "Jayasari",
        "postal_code": "42361"
    },
    {
        "id": "3602112014",
        "district_id": "360211",
        "name": "Girimukti",
        "postal_code": "42361"
    },
    {
        "id": "3602112015",
        "district_id": "360211",
        "name": "Sangkanmanik (Sangkan Manik)",
        "postal_code": "42361"
    },
    {
        "id": "3602112016",
        "district_id": "360211",
        "name": "Sangiangjaya (Sangiang Jaya)",
        "postal_code": "42361"
    },
    {
        "id": "3602112017",
        "district_id": "360211",
        "name": "Mekarmulya",
        "postal_code": "42361"
    }
]