[
    {
        "id": "3529252001",
        "district_id": "352925",
        "name": "Sepanjang",
        "postal_code": "69493"
    },
    {
        "id": "3529252002",
        "district_id": "352925",
        "name": "Tanjung Kiaok",
        "postal_code": "69493"
    },
    {
        "id": "3529252003",
        "district_id": "352925",
        "name": "Sakala",
        "postal_code": "69493"
    },
    {
        "id": "3529252004",
        "district_id": "352925",
        "name": "Pagerungan Besar (Pagerrungan Besar)",
        "postal_code": "69493"
    },
    {
        "id": "3529252005",
        "district_id": "352925",
        "name": "Pagerungan Kecil (Pagerrungan Kecil)",
        "postal_code": "69493"
    },
    {
        "id": "3529252006",
        "district_id": "352925",
        "name": "Saseel (Sase'el)",
        "postal_code": "69493"
    },
    {
        "id": "3529252007",
        "district_id": "352925",
        "name": "Sapeken (Sepeken)",
        "postal_code": "69493"
    },
    {
        "id": "3529252008",
        "district_id": "352925",
        "name": "Sabunten (Saunten)",
        "postal_code": "69493"
    },
    {
        "id": "3529252009",
        "district_id": "352925",
        "name": "Paliat (Paleyat)",
        "postal_code": "69493"
    },
    {
        "id": "3529252010",
        "district_id": "352925",
        "name": "Sadulang",
        "postal_code": "69493"
    },
    {
        "id": "3529252011",
        "district_id": "352925",
        "name": "Saur Saebus",
        "postal_code": "69493"
    }
]