[
    {
        "id": "7505102001",
        "district_id": "750510",
        "name": "Biawu (Biau)",
        "postal_code": "96523"
    },
    {
        "id": "7505102002",
        "district_id": "750510",
        "name": "Omuto",
        "postal_code": "96523"
    },
    {
        "id": "7505102003",
        "district_id": "750510",
        "name": "Luhuto",
        "postal_code": "96523"
    },
    {
        "id": "7505102004",
        "district_id": "750510",
        "name": "Windu",
        "postal_code": "96523"
    },
    {
        "id": "7505102005",
        "district_id": "750510",
        "name": "Topi",
        "postal_code": "96523"
    },
    {
        "id": "7505102006",
        "district_id": "750510",
        "name": "Sembihinga (Sembihingan)",
        "postal_code": "96523"
    },
    {
        "id": "7505102007",
        "district_id": "750510",
        "name": "Didingga",
        "postal_code": "96523"
    },
    {
        "id": "7505102008",
        "district_id": "750510",
        "name": "Bualo",
        "postal_code": "96523"
    },
    {
        "id": "7505102009",
        "district_id": "750510",
        "name": "Potanga (Potango)",
        "postal_code": "96523"
    },
    {
        "id": "7505102010",
        "district_id": "750510",
        "name": "Bohulo",
        "postal_code": "96523"
    }
]