[
    {
        "id": "7302101002",
        "district_id": "730210",
        "name": "Palampang",
        "postal_code": "92553"
    },
    {
        "id": "7302102001",
        "district_id": "730210",
        "name": "Bonto Manai (Bontomanai)",
        "postal_code": "92553"
    },
    {
        "id": "7302102003",
        "district_id": "730210",
        "name": "Bonto Bangun (Bontobangun)",
        "postal_code": "92553"
    },
    {
        "id": "7302102004",
        "district_id": "730210",
        "name": "Karama",
        "postal_code": "92553"
    },
    {
        "id": "7302102005",
        "district_id": "730210",
        "name": "Bonto Lohe (Bontolohe)",
        "postal_code": "92553"
    },
    {
        "id": "7302102006",
        "district_id": "730210",
        "name": "Baji Minasa (Bajiminasa)",
        "postal_code": "92553"
    },
    {
        "id": "7302102007",
        "district_id": "730210",
        "name": "Bonto Matene",
        "postal_code": "92553"
    },
    {
        "id": "7302102008",
        "district_id": "730210",
        "name": "Tanah Harapan",
        "postal_code": "92553"
    },
    {
        "id": "7302102009",
        "district_id": "730210",
        "name": "Batukaroppa",
        "postal_code": "92553"
    },
    {
        "id": "7302102010",
        "district_id": "730210",
        "name": "Bonto Haru (Bontoharu)",
        "postal_code": "92553"
    },
    {
        "id": "7302102011",
        "district_id": "730210",
        "name": "Swatani",
        "postal_code": "92553"
    },
    {
        "id": "7302102012",
        "district_id": "730210",
        "name": "Bulo Lohe (Bulolohe)",
        "postal_code": "92553"
    },
    {
        "id": "7302102013",
        "district_id": "730210",
        "name": "Anrang",
        "postal_code": "92553"
    },
    {
        "id": "7302102014",
        "district_id": "730210",
        "name": "Pangalloang",
        "postal_code": "92553"
    },
    {
        "id": "7302102015",
        "district_id": "730210",
        "name": "Topanda",
        "postal_code": "92553"
    }
]