[
    {
        "id": "3302102001",
        "district_id": "330210",
        "name": "Srowot",
        "postal_code": "53191"
    },
    {
        "id": "3302102002",
        "district_id": "330210",
        "name": "Suro",
        "postal_code": "53191"
    },
    {
        "id": "3302102003",
        "district_id": "330210",
        "name": "Kaliori",
        "postal_code": "53191"
    },
    {
        "id": "3302102004",
        "district_id": "330210",
        "name": "Wlahar Wetan",
        "postal_code": "53191"
    },
    {
        "id": "3302102005",
        "district_id": "330210",
        "name": "Pekaja",
        "postal_code": "53191"
    },
    {
        "id": "3302102006",
        "district_id": "330210",
        "name": "Karangdadap",
        "postal_code": "53191"
    },
    {
        "id": "3302102007",
        "district_id": "330210",
        "name": "Kalibagor",
        "postal_code": "53191"
    },
    {
        "id": "3302102008",
        "district_id": "330210",
        "name": "Pajerukan (Pejerukan)",
        "postal_code": "53191"
    },
    {
        "id": "3302102009",
        "district_id": "330210",
        "name": "Petir",
        "postal_code": "53191"
    },
    {
        "id": "3302102010",
        "district_id": "330210",
        "name": "Kalicupak Kidul (Kalipucak Kidul)",
        "postal_code": "53191"
    },
    {
        "id": "3302102011",
        "district_id": "330210",
        "name": "Kalicupak Lor (Kalipucak Lor)",
        "postal_code": "53191"
    },
    {
        "id": "3302102012",
        "district_id": "330210",
        "name": "Kalisogra Wetan",
        "postal_code": "53191"
    }
]