[
    {
        "id": "3514111006",
        "district_id": "351411",
        "name": "Kutorejo",
        "postal_code": "67156"
    },
    {
        "id": "3514111007",
        "district_id": "351411",
        "name": "Jogosari",
        "postal_code": "67156"
    },
    {
        "id": "3514111008",
        "district_id": "351411",
        "name": "Petungasri",
        "postal_code": "67156"
    },
    {
        "id": "3514111011",
        "district_id": "351411",
        "name": "Pandaan",
        "postal_code": "67156"
    },
    {
        "id": "3514112001",
        "district_id": "351411",
        "name": "Plintahan",
        "postal_code": "67156"
    },
    {
        "id": "3514112002",
        "district_id": "351411",
        "name": "Durensewu",
        "postal_code": "67156"
    },
    {
        "id": "3514112003",
        "district_id": "351411",
        "name": "Karangjati (Karang Jati)",
        "postal_code": "67156"
    },
    {
        "id": "3514112004",
        "district_id": "351411",
        "name": "Wedoro",
        "postal_code": "67156"
    },
    {
        "id": "3514112005",
        "district_id": "351411",
        "name": "Tunggulwulung (Tunggul Wulung)",
        "postal_code": "67156"
    },
    {
        "id": "3514112009",
        "district_id": "351411",
        "name": "Sumbergedang (Sumber Gedang)",
        "postal_code": "67156"
    },
    {
        "id": "3514112010",
        "district_id": "351411",
        "name": "Tawangrejo (Tawang Rejo)",
        "postal_code": "67156"
    },
    {
        "id": "3514112012",
        "district_id": "351411",
        "name": "Nogosari",
        "postal_code": "67156"
    },
    {
        "id": "3514112013",
        "district_id": "351411",
        "name": "Kebonwaris (Kebon Waris)",
        "postal_code": "67156"
    },
    {
        "id": "3514112014",
        "district_id": "351411",
        "name": "Sebani",
        "postal_code": "67156"
    },
    {
        "id": "3514112015",
        "district_id": "351411",
        "name": "Banjarsari",
        "postal_code": "67156"
    },
    {
        "id": "3514112016",
        "district_id": "351411",
        "name": "Banjarkejen (Banjar Kejen)",
        "postal_code": "67156"
    },
    {
        "id": "3514112017",
        "district_id": "351411",
        "name": "Kemirisewu (Kemiri Sewu)",
        "postal_code": "67156"
    },
    {
        "id": "3514112018",
        "district_id": "351411",
        "name": "Sumberrejo (Sumber Rejo)",
        "postal_code": "67156"
    }
]