[
    {
        "id": "1116092001",
        "district_id": "111609",
        "name": "Telaga Meuku Sa (Telaga Meuku Satu \/ Muku I)",
        "postal_code": "24472"
    },
    {
        "id": "1116092002",
        "district_id": "111609",
        "name": "Telaga Meuku Dua",
        "postal_code": "24472"
    },
    {
        "id": "1116092003",
        "district_id": "111609",
        "name": "Alur Nunang",
        "postal_code": "24472"
    },
    {
        "id": "1116092004",
        "district_id": "111609",
        "name": "Tanjung Keramat",
        "postal_code": "24472"
    },
    {
        "id": "1116092005",
        "district_id": "111609",
        "name": "Matang Seping (Matang Seuping)",
        "postal_code": "24472"
    },
    {
        "id": "1116092006",
        "district_id": "111609",
        "name": "Besar",
        "postal_code": "24472"
    },
    {
        "id": "1116092007",
        "district_id": "111609",
        "name": "Paya Rahat",
        "postal_code": "24472"
    },
    {
        "id": "1116092008",
        "district_id": "111609",
        "name": "Suka Jadi (Sukajadi)",
        "postal_code": "24472"
    },
    {
        "id": "1116092009",
        "district_id": "111609",
        "name": "Suka Mulia Upah (Suka Mulia \/ Mulya \/ Upah Hulu)",
        "postal_code": "24472"
    },
    {
        "id": "1116092010",
        "district_id": "111609",
        "name": "Suka Damai",
        "postal_code": "24472"
    }
]