[
    {
        "id": "3216162001",
        "district_id": "321616",
        "name": "Jayabakti (Jaya Bakti)",
        "postal_code": "17720"
    },
    {
        "id": "3216162002",
        "district_id": "321616",
        "name": "Jayalaksana (Jaya Laksana)",
        "postal_code": "17720"
    },
    {
        "id": "3216162003",
        "district_id": "321616",
        "name": "Sindangsari",
        "postal_code": "17720"
    },
    {
        "id": "3216162004",
        "district_id": "321616",
        "name": "Sindangjaya (Sindang Jaya)",
        "postal_code": "17720"
    },
    {
        "id": "3216162005",
        "district_id": "321616",
        "name": "Setialaksana",
        "postal_code": "17720"
    },
    {
        "id": "3216162006",
        "district_id": "321616",
        "name": "Setiajaya (Setia Jaya)",
        "postal_code": "17720"
    },
    {
        "id": "3216162007",
        "district_id": "321616",
        "name": "Lenggahjaya (Lenggah Jaya)",
        "postal_code": "17720"
    },
    {
        "id": "3216162008",
        "district_id": "321616",
        "name": "Lenggahsari (Lenggah Sari)",
        "postal_code": "17720"
    }
]