[
    {
        "id": "6501042001",
        "district_id": "650104",
        "name": "Tanah Kuning",
        "postal_code": "77215"
    },
    {
        "id": "6501042002",
        "district_id": "650104",
        "name": "Mangkupadi",
        "postal_code": "77215"
    },
    {
        "id": "6501042003",
        "district_id": "650104",
        "name": "Sajau",
        "postal_code": "77215"
    },
    {
        "id": "6501042004",
        "district_id": "650104",
        "name": "Wonomulyo (Wono Mulyo)",
        "postal_code": "77215"
    },
    {
        "id": "6501042005",
        "district_id": "650104",
        "name": "Tanjung Agung",
        "postal_code": "77215"
    },
    {
        "id": "6501042006",
        "district_id": "650104",
        "name": "Binai",
        "postal_code": "77215"
    },
    {
        "id": "6501042007",
        "district_id": "650104",
        "name": "Sajau Hilir (Sajau Timur)",
        "postal_code": "77215"
    },
    {
        "id": "6501042008",
        "district_id": "650104",
        "name": "Pura Sajau",
        "postal_code": "77215"
    }
]