[
    {
        "id": "9406042001",
        "district_id": "940604",
        "name": "Idakebo",
        "postal_code": "98885"
    },
    {
        "id": "9406042002",
        "district_id": "940604",
        "name": "Pugatadi Satu (I)",
        "postal_code": "98885"
    },
    {
        "id": "9406042003",
        "district_id": "940604",
        "name": "Pugatadi Dua (II)",
        "postal_code": "98885"
    },
    {
        "id": "9406042004",
        "district_id": "940604",
        "name": "Ikrar",
        "postal_code": "98885"
    },
    {
        "id": "9406042005",
        "district_id": "940604",
        "name": "Obayo",
        "postal_code": "98885"
    },
    {
        "id": "9406042006",
        "district_id": "940604",
        "name": "Koyakago (Kuyakago)",
        "postal_code": "98885"
    },
    {
        "id": "9406042007",
        "district_id": "940604",
        "name": "Mogou",
        "postal_code": "98885"
    },
    {
        "id": "9406042008",
        "district_id": "940604",
        "name": "Yametadi (Yawetadi)",
        "postal_code": "98885"
    },
    {
        "id": "9406042009",
        "district_id": "940604",
        "name": "Duntek (Dumtek)",
        "postal_code": "98885"
    },
    {
        "id": "9406042010",
        "district_id": "940604",
        "name": "Ekimani (Ekiwani)",
        "postal_code": "98885"
    }
]