[
    {
        "id": "9406012001",
        "district_id": "940601",
        "name": "Ikebo (Moanemani)",
        "postal_code": "98882"
    },
    {
        "id": "9406012002",
        "district_id": "940601",
        "name": "Mauwa",
        "postal_code": "98882"
    },
    {
        "id": "9406012003",
        "district_id": "940601",
        "name": "Ekemanida (Ekemenida)",
        "postal_code": "98882"
    },
    {
        "id": "9406012004",
        "district_id": "940601",
        "name": "Bukapa (Bugapa)",
        "postal_code": "98882"
    },
    {
        "id": "9406012005",
        "district_id": "940601",
        "name": "Kimipugi (Kimupugi)",
        "postal_code": "98882"
    },
    {
        "id": "9406012006",
        "district_id": "940601",
        "name": "Dikiyouwo (Dikiyouwa \/ Dikiyouma \/ Tokapo)",
        "postal_code": "98882"
    },
    {
        "id": "9406012007",
        "district_id": "940601",
        "name": "Idakotu",
        "postal_code": "98882"
    },
    {
        "id": "9406012008",
        "district_id": "940601",
        "name": "Putapa (Uputapa)",
        "postal_code": "98882"
    }
]